GLOBALSTAR M075 [+]     
1 37192U 10054E   23363.33508704 -.00000084  00000+0  11303-3 0  9992
2 37192  51.9971  13.0922 0000398 132.8380 329.7685 12.62268680608339
GLOBALSTAR M073 [+]     
1 37193U 10054F   23363.18601623 -.00000074  00000+0  16428-3 0  9992
2 37193  52.0070 286.9536 0000700  52.5734  94.3638 12.62270687610147
GLOBALSTAR M083 [+]     
1 37739U 11033A   23363.12479005 -.00000076  00000+0  15417-3 0  9996
2 37739  51.9849 236.6038 0001147  80.2304  88.6194 12.62264392579155
GLOBALSTAR M088 [+]     
1 37740U 11033B   23363.55329368 -.00000123  00000+0 -10984-3 0  9999
2 37740  51.9719 141.2382 0001171 114.6619 322.7214 12.62269035574759
GLOBALSTAR M091 [+]     
1 37741U 11033C   23363.48817515 -.00000104  00000+0  51777-6 0  9994
2 37741  52.0000 104.0349 0001052 124.2850 316.1687 12.62269842575531
GLOBALSTAR M085 [+]     
1 37742U 11033D   23363.48044389 -.00000080  00000+0  13090-3 0  9992
2 37742  51.9883  55.5723 0000716 132.0254 333.2622 12.62266177576040
GLOBALSTAR M081 [+]     
1 37743U 11033E   23363.34267439 -.00000076  00000+0  15597-3 0  9990
2 37743  51.9973  58.4475 0000729 148.7656 290.3729 12.62267885576173
GLOBALSTAR M089 [+]     
1 37744U 11033F   23363.22391657 -.00000078  00000+0  14275-3 0  9992
2 37744  51.9954  13.1378 0000021  92.9042 346.7962 12.62270687577009
